[{"OBJECT_NAME":"IRIDIUM 110","OBJECT_ID":"2018-047F","EPOCH":"2026-03-09T16:39:54.331776","MEAN_MOTION":14.34217414,"ECCENTRICITY":0.00023666,"INCLINATION":86.3979,"RA_OF_ASC_NODE":130.0337,"ARG_OF_PERICENTER":86.5409,"MEAN_ANOMALY":273.6057,"EPHEMERIS_TYPE":0,"CLASSIFICATION_TYPE":"U","NORAD_CAT_ID":43481,"ELEMENT_SET_NO":999,"REV_AT_EPOCH":40821,"BSTAR":-8.01159e-6,"MEAN_MOTION_DOT":-3.0e-8,"MEAN_MOTION_DDOT":0},{"OBJECT_NAME":"FENGYUN 1C DEB","OBJECT_ID":"1999-025DMV","EPOCH":"2026-03-08T05:35:18.494016","MEAN_MOTION":14.34907418,"ECCENTRICITY":0.00231584,"INCLINATION":98.8695,"RA_OF_ASC_NODE":166.388,"ARG_OF_PERICENTER":167.765,"MEAN_ANOMALY":192.4101,"EPHEMERIS_TYPE":0,"CLASSIFICATION_TYPE":"U","NORAD_CAT_ID":35165,"ELEMENT_SET_NO":999,"REV_AT_EPOCH":90946,"BSTAR":0.0029929493,"MEAN_MOTION_DOT":8.497e-5,"MEAN_MOTION_DDOT":0}]
